NOAA 15                 
1 25338U 98030A   20208.93826735  .00000052  00000-0  40211-4 0  9995
2 25338  98.7148 233.7842 0011141 143.1563 217.0384 14.25981497154601
DMSP 5D-3 F15 (USA 147) 
1 25991U 99067A   20208.92771041 -.00000100  00000-0 -27326-4 0  9997
2 25991  98.9721 180.6023 0009918 355.2802  65.9705 14.16478287 66019
METEOSAT-8 (MSG-1)      
1 27509U 02040B   20208.75694676  .00000125  00000-0  00000-0 0  9999
2 27509   6.7908  53.9376 0002239  40.3104 164.6801  1.00278577 65684
DMSP 5D-3 F16 (USA 172) 
1 28054U 03048A   20208.93394828 -.00000099  00000-0 -28573-4 0  9991
2 28054  98.9141 187.8622 0008460 107.7977 277.9979 14.13650904865364
NOAA 18                 
1 28654U 05018A   20208.90124849  .00000043  00000-0  47658-4 0  9999
2 28654  99.0411 265.6934 0015283 118.7073 241.5636 14.12527746782487
METEOSAT-9 (MSG-2)      
1 28912U 05049B   20208.82115241  .00000006  00000-0  00000-0 0  9992
2 28912   4.5054  70.0000 0002513  14.0744 159.7663  1.00271660 53468
FORMOSAT-3 FM6          
1 29047U 06011A   20208.89509493  .00000020  00000-0  24151-4 0  9998
2 29047  71.9785  29.4890 0050667 352.2682   7.7667 14.28743573746953
FORMOSAT-3 FM1          
1 29048U 06011B   20208.70465710  .00000040  00000-0  32125-4 0  9994
2 29048  71.9673 300.7423 0045202 310.9501  48.7727 14.28706711749416
FORMOSAT-3 FM5          
1 29049U 06011C   20208.91352514  .00000013  00000-0  21353-4 0  9996
2 29049  72.0212 112.1891 0035707 335.8900  24.0563 14.28790098745232
FORMOSAT-3 FM3          
1 29050U 06011D   20208.84213231  .00000078  00000-0  26913-4 0  9990
2 29050  72.0146 254.4020 0051768 254.0482 105.4964 14.58932139762073
FORMOSAT-3 FM4          
1 29051U 06011E   20208.91265408  .00000014  00000-0  21410-4 0  9999
2 29051  72.0057  14.1666 0069102 217.6863 141.9422 14.28820583747827
FORMOSAT-3 FM2          
1 29052U 06011F   20208.90946391  .00000019  00000-0  23802-4 0  9998
2 29052  72.0347  88.5003 0041593 296.6666  63.0214 14.28926799745335
GOES 13                 
1 29155U 06018A   20208.83275478  .00000029  00000-0  00000-0 0  9994
2 29155   0.0792 226.8092 0006773 325.7303 113.6720  1.00267757 21791
METOP-A                 
1 29499U 06044A   20208.87535568 -.00000025  00000-0  76645-5 0  9997
2 29499  98.5193 254.3081 0001656 110.3805  62.3709 14.21502547714302
DMSP 5D-3 F17 (USA 191) 
1 29522U 06050A   20208.89888858 -.00000074  00000-0 -15949-4 0  9990
2 29522  98.8008 224.7040 0010938  67.7847 292.4485 14.14015093708281
FENGYUN 3A              
1 32958U 08026A   20208.92016343 -.00000001  00000-0  19398-4 0  9999
2 32958  98.4078 192.6177 0007878 216.5835 143.4805 14.18629771630312
FENGYUN 2E              
1 33463U 08066A   20208.69422412 -.00000214  00000-0  00000-0 0  9999
2 33463   4.4203  68.4325 0002926 293.9132 278.9449  1.00276584 42518
NOAA 19                 
1 33591U 09005A   20208.90784266  .00000028  00000-0  40861-4 0  9992
2 33591  99.1952 215.2816 0013401 329.1599  30.8784 14.12423612590707
GOES 14                 
1 35491U 09033A   20208.58430685 -.00000101  00000-0  00000-0 0  9991
2 35491   0.4123  97.8638 0009379 115.3683 197.4015  1.00269738 40546
METEOR-M 1              
1 35865U 09049A   20208.91489953  .00000006  00000-0  21583-4 0  9998
2 35865  98.4401 194.2824 0003556  80.7083 279.4497 14.22244082563386
DMSP 5D-3 F18 (USA 210) 
1 35951U 09057A   20208.89871626  .00000064  00000-0  56843-4 0  9993
2 35951  98.6460 197.4658 0009799 254.7859 105.2230 14.13287244329252
GOES 15                 
1 36411U 10008A   20208.72309924  .00000047  00000-0  00000+0 0  9992
2 36411   0.0488 242.6948 0002735 199.6558 354.4197  1.00271957 38097
COMS 1                  
1 36744U 10032A   20208.84610189 -.00000354  00000-0  00000-0 0  9992
2 36744   0.0205  78.5595 0000947  38.4628 260.7096  1.00270375 29515
FENGYUN 3B              
1 37214U 10059A   20208.77823527 -.00000017  00000-0  14735-4 0  9998
2 37214  99.0486 191.1251 0017445 152.9687 207.2400 14.15952904503243
SUOMI NPP               
1 37849U 11061A   20208.87517883  .00000010  00000-0  25430-4 0  9998
2 37849  98.7373 146.2721 0001460  99.3463 328.8873 14.19540050453211
FENGYUN 2F              
1 38049U 12002A   20208.34025449 -.00000366  00000-0  00000-0 0  9998
2 38049   2.1514  83.4256 0002182  80.9356  14.4880  1.00262271 31315
METEOSAT-10 (MSG-3)     
1 38552U 12035B   20204.94622052  .00000063  00000-0  00000-0 0  9991
2 38552   1.0202  14.7336 0000411  32.6323 244.2714  1.00283559 29276
METOP-B                 
1 38771U 12049A   20208.84894229 -.00000019  00000-0  11229-4 0  9990
2 38771  98.6890 267.5497 0000474 155.5523 334.6682 14.21500849407624
FENGYUN 3C              
1 39260U 13052A   20208.84780603 -.00000031  00000-0  53858-5 0  9998
2 39260  98.5473 257.6333 0012313 102.1677 258.0878 14.15842084354198
METEOR-M 2              
1 40069U 14037A   20208.91322347 -.00000016  00000-0  12005-4 0  9997
2 40069  98.5003 244.9528 0005986 156.9509 203.1935 14.20674135313815
HIMAWARI-8              
1 40267U 14060A   20208.84854449 -.00000285  00000-0  00000-0 0  9994
2 40267   0.0263 107.1836 0001177  30.7418 253.2062  1.00270268 21185
FENGYUN 2G              
1 40367U 14090A   20208.69675397 -.00000312  00000-0  00000-0 0  9995
2 40367   2.1747  94.1082 0001479 323.3094 237.8160  1.00274769 20467
METEOSAT-11 (MSG-4)     
1 40732U 15034A   20208.82054176 -.00000011  00000-0  00000-0 0  9997
2 40732   0.7478 272.7726 0003366 224.1210 103.5206  1.00273298 18465
ELEKTRO-L 2             
1 41105U 15074A   20204.77966084 -.00000102  00000-0  00000+0 0  9996
2 41105   1.2820  96.7253 0001690  61.0117 139.9802  1.00273046 16901
HIMAWARI-9              
1 41836U 16064A   20208.84854449 -.00000284  00000-0  00000-0 0  9992
2 41836   0.0442 261.1575 0000466 187.5186 302.5324  1.00272470 13616
GOES 16                 
1 41866U 16071A   20208.80553719 -.00000257  00000-0  00000-0 0  9995
2 41866   0.0440 135.6634 0000546   7.3688  16.7035  1.00271802 13546
FENGYUN 4A              
1 41882U 16077A   20208.91318631 -.00000339  00000-0  00000-0 0  9994
2 41882   0.0418  65.1914 0003714  74.5682 238.6415  1.00275737 13411
CYGFM05                 
1 41884U 16078A   20208.63707023  .00000251  00000-0  15023-4 0  9990
2 41884  34.9552 176.5555 0015321  33.9715 326.1975 15.14649862200055
CYGFM04                 
1 41885U 16078B   20208.92358354  .00000264  00000-0  15510-4 0  9997
2 41885  34.9485 167.7578 0013560  47.4229 312.7625 15.15160777200160
CYGFM02                 
1 41886U 16078C   20208.91641264  .00000261  00000-0  15333-4 0  9992
2 41886  34.9576 169.5611 0014350  43.1691 317.0144 15.15161706200150
CYGFM01                 
1 41887U 16078D   20208.61055840  .00000236  00000-0  14314-4 0  9999
2 41887  34.9519 177.9170 0015792  34.5070 325.6664 15.14462417200038
CYGFM08                 
1 41888U 16078E   20208.59158390  .00000237  00000-0  14168-4 0  9999
2 41888  34.9489 173.6534 0014892  41.5446 318.6395 15.14877949200063
CYGFM06                 
1 41889U 16078F   20208.23655346  .00000248  00000-0  14661-4 0  9994
2 41889  34.9570 172.4784 0013340  36.6378 323.5244 15.15155206200058
CYGFM07                 
1 41890U 16078G   20208.61033004  .00000263  00000-0  15452-4 0  9995
2 41890  34.9508 169.2296 0013062  43.4723 316.7016 15.15154174200115
CYGFM03                 
1 41891U 16078H   20208.60585785  .00000261  00000-0  15346-4 0  9993
2 41891  34.9540 169.5144 0012559  42.0748 318.0926 15.15149769200118
FENGYUN 3D              
1 43010U 17072A   20208.83366210 -.00000036  00000-0  36295-5 0  9996
2 43010  98.7535 147.7198 0001379  13.3693 346.7523 14.19745464139782
NOAA 20                 
1 43013U 17073A   20208.89716870 -.00000016  00000-0  13254-4 0  9994
2 43013  98.7186 146.2356 0000854 100.0559 260.0714 14.19558168139254
GOES 17                 
1 43226U 18022A   20208.72135451  .00000089  00000-0  00000-0 0  9997
2 43226   0.0474 240.4175 0000343 242.3899 304.5356  1.00272655  8837
FENGYUN 2H              
1 43491U 18050A   20207.11351201 -.00000133  00000-0  00000+0 0  9997
2 43491   0.5706 272.6290 0003608 227.9876 282.5975  1.00268183  7922
METOP-C                 
1 43689U 18087A   20208.86090355 -.00000025  00000-0  85695-5 0  9998
2 43689  98.6953 267.8763 0001524 198.3897 161.7225 14.21499260 89197
GEO-KOMPSAT-2A          
1 43823U 18100A   20208.84610189 -.00000353  00000-0  00000-0 0  9991
2 43823   0.0363 212.6995 0002312 250.6527 274.4737  1.00272040  6032
IOD-1 GEMS              
1 44385U 98067QK  20208.87734042  .00015263  00000-0  18283-3 0  9993
2 44385  51.6390 134.0496 0003029 104.6689 255.4641 15.61159814 60650
METEOR-M2 2             
1 44387U 19038A   20208.86439683 -.00000030  00000-0  59285-5 0  9994
2 44387  98.6220 168.1305 0002436 103.7074 256.4376 14.23680049 55141
